{"fetched_at":"2026-04-14T06:02:07Z","count":5195,"tles":[{"name":"COSMOS 2428","line1":"1 31792U 07029A   26103.22424899 -.00000109  00000+0 -32486-4 0  9990","line2":"2 31792  70.9403 130.8598 0009566 240.4426 119.5742 14.12948485968973","category":"Other"},{"name":"COSMO-SKYMED 1","line1":"1 31598U 07023A   26103.22924529  .00001440  00000+0  13101-3 0  9992","line2":"2 31598  97.8886 294.5456 0001570  87.8104 272.3297 14.96796093 20075","category":"Other"},{"name":"SL-4 R/B","line1":"1 39679U 14021B   26103.22074126  .00007448  00000+0  16483-3 0  9995","line2":"2 39679  51.6066 168.6627 0093357 229.1654 130.1210 15.40430853661590","category":"Other"},{"name":"ASTRO-H (HITOMI)","line1":"1 41337U 16012A   26103.20319370  .00001847  00000+0  10449-3 0  9995","line2":"2 41337  30.9979 133.7828 0009588 318.2933  41.6974 15.10221082557457","category":"Other"},{"name":"CZ-2C R/B","line1":"1 37731U 11030B   26103.12042806  .00000686  00000+0  92870-4 0  9990","line2":"2 37731  97.8599  59.7110 0051133 237.5022 132.1138 14.81336617795197","category":"Other"},{"name":"SL-16 R/B","line1":"1 31793U 07029B   26103.26888372 -.00000187  00000+0 -72083-4 0  9998","line2":"2 31793  70.9728  99.6957 0002816 273.0248 103.9215 14.14841754970260","category":"Other"},{"name":"ALOS (DAICHI)","line1":"1 28931U 06002A   26103.15276033  .00000767  00000+0  13637-3 0  9992","line2":"2 28931  98.1271  58.9508 0001504 113.8345 246.3019 14.69916511 78545","category":"Other"},{"name":"H-2A R/B","line1":"1 28932U 06002B   26102.97908891  .00005959  00000+0  29325-3 0  9995","line2":"2 28932  98.2471 252.9861 0052578 124.6060 236.0146 15.17213571 99638","category":"Other"},{"name":"CZ-2C R/B","line1":"1 31114U 07010B   26103.24651329  .00000076  00000+0  53652-4 0  9999","line2":"2 31114  98.4017 214.7995 0058827 192.6214 167.3494 14.20259315984628","category":"Other"},{"name":"SHIJIAN-16 (SJ-16)","line1":"1 39358U 13057A   26103.28661525  .00000957  00000+0  95941-4 0  9993","line2":"2 39358  74.9707 119.5888 0015658  23.1479 337.0411 14.92457596676667","category":"Other"},{"name":"ALOS-2","line1":"1 39766U 14029A   26103.27922656 -.00000429  00000+0 -50634-4 0  9996","line2":"2 39766  97.9191 201.3731 0001779  90.3054 269.8362 14.79472252641988","category":"Other"},{"name":"H-2A R/B","line1":"1 38341U 12025E   26103.25798218  .00002067  00000+0  18994-3 0  9991","line2":"2 38341  98.4784  73.0913 0043819 197.8119 162.1566 14.95396552753387","category":"Other"},{"name":"KORONAS-FOTON","line1":"1 33504U 09003A   26103.11750828  .00009668  00000+0  20867-3 0  9995","line2":"2 33504  82.4290 240.0560 0010904  36.6072 323.5919 15.44314299951051","category":"Other"},{"name":"RESURS-DK 1","line1":"1 29228U 06021A   26103.24801031  .00001234  00000+0  75944-4 0  9995","line2":"2 29228  69.9300 147.6198 0002377  11.4160 348.7060 15.12944101 92759","category":"Other"},{"name":"CZ-4B R/B","line1":"1 29507U 06046C   26103.10525122  .00002558  00000+0  13011-3 0  9997","line2":"2 29507  97.5530 147.9168 0034045 146.1129 214.2289 15.17264341 65261","category":"Other"},{"name":"YAOGAN-29","line1":"1 41038U 15069A   26103.33976984 -.00000227  00000+0 -21320-4 0  9992","line2":"2 41038  98.0100 131.8550 0000769 160.1619 199.9625 14.83031767561019","category":"Other"}]}