[{"OBJECT_NAME":"ALOS (DAICHI)","OBJECT_ID":"2006-002A","EPOCH":"2026-04-13T03:39:58.492512","MEAN_MOTION":14.69916511,"ECCENTRICITY":0.00015044,"INCLINATION":98.1271,"RA_OF_ASC_NODE":58.9508,"ARG_OF_PERICENTER":113.8345,"MEAN_ANOMALY":246.3019,"EPHEMERIS_TYPE":0,"CLASSIFICATION_TYPE":"U","NORAD_CAT_ID":28931,"ELEMENT_SET_NO":999,"REV_AT_EPOCH":7854,"BSTAR":0.00013636845,"MEAN_MOTION_DOT":7.67e-6,"MEAN_MOTION_DDOT":0},{"OBJECT_NAME":"H-2A R/B","OBJECT_ID":"2006-002B","EPOCH":"2026-04-12T23:29:53.281824","MEAN_MOTION":15.17213571,"ECCENTRICITY":0.00525785,"INCLINATION":98.2471,"RA_OF_ASC_NODE":252.9861,"ARG_OF_PERICENTER":124.606,"MEAN_ANOMALY":236.0146,"EPHEMERIS_TYPE":0,"CLASSIFICATION_TYPE":"U","NORAD_CAT_ID":28932,"ELEMENT_SET_NO":999,"REV_AT_EPOCH":9963,"BSTAR":0.00029324844,"MEAN_MOTION_DOT":5.959e-5,"MEAN_MOTION_DDOT":0},{"OBJECT_NAME":"RESURS-DK 1","OBJECT_ID":"2006-021A","EPOCH":"2026-04-13T05:57:08.090784","MEAN_MOTION":15.12944101,"ECCENTRICITY":0.00023772,"INCLINATION":69.93,"RA_OF_ASC_NODE":147.6198,"ARG_OF_PERICENTER":11.416,"MEAN_ANOMALY":348.706,"EPHEMERIS_TYPE":0,"CLASSIFICATION_TYPE":"U","NORAD_CAT_ID":29228,"ELEMENT_SET_NO":999,"REV_AT_EPOCH":9275,"BSTAR":7.594396e-5,"MEAN_MOTION_DOT":1.234e-5,"MEAN_MOTION_DDOT":0},{"OBJECT_NAME":"CZ-4B R/B","OBJECT_ID":"2006-046C","EPOCH":"2026-04-13T02:31:33.705408","MEAN_MOTION":15.17264341,"ECCENTRICITY":0.00340459,"INCLINATION":97.553,"RA_OF_ASC_NODE":147.9168,"ARG_OF_PERICENTER":146.1129,"MEAN_ANOMALY":214.2289,"EPHEMERIS_TYPE":0,"CLASSIFICATION_TYPE":"U","NORAD_CAT_ID":29507,"ELEMENT_SET_NO":999,"REV_AT_EPOCH":6526,"BSTAR":0.00013011454,"MEAN_MOTION_DOT":2.558e-5,"MEAN_MOTION_DDOT":0},{"OBJECT_NAME":"CZ-2C R/B","OBJECT_ID":"2007-010B","EPOCH":"2026-04-13T05:54:58.748256","MEAN_MOTION":14.20259315,"ECCENTRICITY":0.00588275,"INCLINATION":98.4017,"RA_OF_ASC_NODE":214.7995,"ARG_OF_PERICENTER":192.6214,"MEAN_ANOMALY":167.3494,"EPHEMERIS_TYPE":0,"CLASSIFICATION_TYPE":"U","NORAD_CAT_ID":31114,"ELEMENT_SET_NO":999,"REV_AT_EPOCH":98462,"BSTAR":5.3652179e-5,"MEAN_MOTION_DOT":7.6e-7,"MEAN_MOTION_DDOT":0},{"OBJECT_NAME":"COSMO-SKYMED 1","OBJECT_ID":"2007-023A","EPOCH":"2026-04-13T05:30:06.793056","MEAN_MOTION":14.96796093,"ECCENTRICITY":0.00015702,"INCLINATION":97.8886,"RA_OF_ASC_NODE":294.5456,"ARG_OF_PERICENTER":87.8104,"MEAN_ANOMALY":272.3297,"EPHEMERIS_TYPE":0,"CLASSIFICATION_TYPE":"U","NORAD_CAT_ID":31598,"ELEMENT_SET_NO":999,"REV_AT_EPOCH":2007,"BSTAR":0.0001310131,"MEAN_MOTION_DOT":1.44e-5,"MEAN_MOTION_DDOT":0},{"OBJECT_NAME":"COSMOS 2428","OBJECT_ID":"2007-029A","EPOCH":"2026-04-13T05:22:55.112736","MEAN_MOTION":14.12948485,"ECCENTRICITY":0.0009566,"INCLINATION":70.9403,"RA_OF_ASC_NODE":130.8598,"ARG_OF_PERICENTER":240.4426,"MEAN_ANOMALY":119.5742,"EPHEMERIS_TYPE":0,"CLASSIFICATION_TYPE":"U","NORAD_CAT_ID":31792,"ELEMENT_SET_NO":999,"REV_AT_EPOCH":96897,"BSTAR":-3.2485593e-5,"MEAN_MOTION_DOT":-1.09e-6,"MEAN_MOTION_DDOT":0},{"OBJECT_NAME":"SL-16 R/B","OBJECT_ID":"2007-029B","EPOCH":"2026-04-13T06:27:11.553408","MEAN_MOTION":14.14841754,"ECCENTRICITY":0.00028169,"INCLINATION":70.9728,"RA_OF_ASC_NODE":99.6957,"ARG_OF_PERICENTER":273.0248,"MEAN_ANOMALY":103.9215,"EPHEMERIS_TYPE":0,"CLASSIFICATION_TYPE":"U","NORAD_CAT_ID":31793,"ELEMENT_SET_NO":999,"REV_AT_EPOCH":97026,"BSTAR":-7.2083258e-5,"MEAN_MOTION_DOT":-1.87e-6,"MEAN_MOTION_DDOT":0},{"OBJECT_NAME":"KORONAS-FOTON","OBJECT_ID":"2009-003A","EPOCH":"2026-04-13T02:49:12.715392","MEAN_MOTION":15.44314299,"ECCENTRICITY":0.00109048,"INCLINATION":82.429,"RA_OF_ASC_NODE":240.056,"ARG_OF_PERICENTER":36.6072,"MEAN_ANOMALY":323.5919,"EPHEMERIS_TYPE":0,"CLASSIFICATION_TYPE":"U","NORAD_CAT_ID":33504,"ELEMENT_SET_NO":999,"REV_AT_EPOCH":95105,"BSTAR":0.00020867212,"MEAN_MOTION_DOT":9.668e-5,"MEAN_MOTION_DDOT":0},{"OBJECT_NAME":"CZ-2C R/B","OBJECT_ID":"2011-030B","EPOCH":"2026-04-13T02:53:24.984384","MEAN_MOTION":14.81336617,"ECCENTRICITY":0.00511337,"INCLINATION":97.8599,"RA_OF_ASC_NODE":59.711,"ARG_OF_PERICENTER":237.5022,"MEAN_ANOMALY":132.1138,"EPHEMERIS_TYPE":0,"CLASSIFICATION_TYPE":"U","NORAD_CAT_ID":37731,"ELEMENT_SET_NO":999,"REV_AT_EPOCH":79519,"BSTAR":9.2870362e-5,"MEAN_MOTION_DOT":6.86e-6,"MEAN_MOTION_DDOT":0},{"OBJECT_NAME":"H-2A R/B","OBJECT_ID":"2012-025E","EPOCH":"2026-04-13T06:11:29.660352","MEAN_MOTION":14.95396552,"ECCENTRICITY":0.00438194,"INCLINATION":98.4784,"RA_OF_ASC_NODE":73.0913,"ARG_OF_PERICENTER":197.8119,"MEAN_ANOMALY":162.1566,"EPHEMERIS_TYPE":0,"CLASSIFICATION_TYPE":"U","NORAD_CAT_ID":38341,"ELEMENT_SET_NO":999,"REV_AT_EPOCH":75338,"BSTAR":0.00018994391,"MEAN_MOTION_DOT":2.067e-5,"MEAN_MOTION_DDOT":0},{"OBJECT_NAME":"SHIJIAN-16 (SJ-16)","OBJECT_ID":"2013-057A","EPOCH":"2026-04-13T06:52:43.557600","MEAN_MOTION":14.92457596,"ECCENTRICITY":0.00156583,"INCLINATION":74.9707,"RA_OF_ASC_NODE":119.5888,"ARG_OF_PERICENTER":23.1479,"MEAN_ANOMALY":337.0411,"EPHEMERIS_TYPE":0,"CLASSIFICATION_TYPE":"U","NORAD_CAT_ID":39358,"ELEMENT_SET_NO":999,"REV_AT_EPOCH":67666,"BSTAR":9.5941276e-5,"MEAN_MOTION_DOT":9.57e-6,"MEAN_MOTION_DDOT":0},{"OBJECT_NAME":"SL-4 R/B","OBJECT_ID":"2014-021B","EPOCH":"2026-04-13T05:17:52.044864","MEAN_MOTION":15.40430853,"ECCENTRICITY":0.00933574,"INCLINATION":51.6066,"RA_OF_ASC_NODE":168.6627,"ARG_OF_PERICENTER":229.1654,"MEAN_ANOMALY":130.121,"EPHEMERIS_TYPE":0,"CLASSIFICATION_TYPE":"U","NORAD_CAT_ID":39679,"ELEMENT_SET_NO":999,"REV_AT_EPOCH":66159,"BSTAR":0.00016482859,"MEAN_MOTION_DOT":7.448e-5,"MEAN_MOTION_DDOT":0},{"OBJECT_NAME":"ALOS-2","OBJECT_ID":"2014-029A","EPOCH":"2026-04-13T06:42:05.174784","MEAN_MOTION":14.79472252,"ECCENTRICITY":0.00017799,"INCLINATION":97.9191,"RA_OF_ASC_NODE":201.3731,"ARG_OF_PERICENTER":90.3054,"MEAN_ANOMALY":269.8362,"EPHEMERIS_TYPE":0,"CLASSIFICATION_TYPE":"U","NORAD_CAT_ID":39766,"ELEMENT_SET_NO":999,"REV_AT_EPOCH":64198,"BSTAR":-5.0634272e-5,"MEAN_MOTION_DOT":-4.29e-6,"MEAN_MOTION_DDOT":0},{"OBJECT_NAME":"YAOGAN-29","OBJECT_ID":"2015-069A","EPOCH":"2026-04-13T08:09:16.114176","MEAN_MOTION":14.83031767,"ECCENTRICITY":7.695e-5,"INCLINATION":98.01,"RA_OF_ASC_NODE":131.855,"ARG_OF_PERICENTER":160.1619,"MEAN_ANOMALY":199.9625,"EPHEMERIS_TYPE":0,"CLASSIFICATION_TYPE":"U","NORAD_CAT_ID":41038,"ELEMENT_SET_NO":999,"REV_AT_EPOCH":56101,"BSTAR":-2.1320261e-5,"MEAN_MOTION_DOT":-2.27e-6,"MEAN_MOTION_DDOT":0},{"OBJECT_NAME":"ASTRO-H (HITOMI)","OBJECT_ID":"2016-012A","EPOCH":"2026-04-13T04:52:35.935680","MEAN_MOTION":15.10221082,"ECCENTRICITY":0.00095882,"INCLINATION":30.9979,"RA_OF_ASC_NODE":133.7828,"ARG_OF_PERICENTER":318.2933,"MEAN_ANOMALY":41.6974,"EPHEMERIS_TYPE":0,"CLASSIFICATION_TYPE":"U","NORAD_CAT_ID":41337,"ELEMENT_SET_NO":999,"REV_AT_EPOCH":55745,"BSTAR":0.00010448761,"MEAN_MOTION_DOT":1.847e-5,"MEAN_MOTION_DDOT":0}]
